     2.10           Navigation                              RINEX VERSION / TYPE
RinexNavWriter      NIMA                11-07-01 22:11:07   PGM / RUN BY / DATE
                                                            END OF HEADER
23 00  4 10  0  0  0.0  .892858952284D-05  .454747350886D-12  .000000000000D+01
     .226000000000D+03 -.111000000000D+03  .402838208400D-08  .204480412470D+01
    -.595673918724D-05  .146519975970D-01  .812299549580D-05  .515359183311D+04
     .864000000000D+05  .428408384323D-07 -.248366336275D+01 -.322237610817D-06
     .976965435286D+00  .231937500000D+03 -.189569348868D+01 -.777353808478D-08
    -.564309220030D-10  .100000000000D+01  .105700000000D+04  .000000000000D+01
     .480000000000D+02  .000000000000D+01 -.279396772385D-08  .738000000000D+03
     .829860000000D+05  .400000000000D+01
22 00  4 10  0  0  0.0  .358670484275D-03 -.110276232590D-10  .000000000000D+01
     .111000000000D+03  .133750000000D+02  .506949687918D-08  .149993500641D+01
     .840052962303D-06  .130276182899D-01  .984407961369D-05  .515384736824D+04
     .864000000000D+05 -.175088644028D-06  .559088876593D+00  .521540641785D-07
     .934297400437D+00  .179093750000D+03  .562029747161D+00 -.833784730481D-08
    -.520378818724D-09  .100000000000D+01  .105700000000D+04  .000000000000D+01
     .480000000000D+02  .000000000000D+01 -.372529029846D-08  .367000000000D+03
     .858060000000D+05  .400000000000D+01
 8 00  4 10  0  0  0.0  .708049628884D-03  .227373675443D-12  .000000000000D+01
     .190000000000D+02 -.515625000000D+01  .487127433670D-08 -.954908384499D+00
    -.301748514175D-06  .756483781151D-02  .716187059879D-05  .515371685982D+04
     .864000000000D+05 -.117346644402D-06 -.406210024004D+00  .223517417908D-07
     .958061239211D+00  .243375000000D+03  .184747522164D+01 -.826927301984D-08
    -.835749098019D-10  .100000000000D+01  .105700000000D+04  .000000000000D+01
     .480000000000D+02  .000000000000D+01 -.419095158577D-08  .190000000000D+02
     .863160000000D+05  .400000000000D+01
17 00  4 10  0  0  0.0 -.250512734056D-03 -.159161572810D-11  .000000000000D+01
     .205000000000D+03 -.232187500000D+02  .429625038464D-08 -.163301242893D+01
    -.136345624924D-05  .114995198091D-01  .324659049511D-05  .515352962303D+04
     .864000000000D+05 -.577419996262D-07  .281104428159D+01 -.169500708580D-06
     .984493902843D+00  .332593750000D+03  .294509301588D+01 -.825748681461D-08
     .124648049234D-09  .100000000000D+01  .105700000000D+04  .000000000000D+01
     .480000000000D+02  .000000000000D+01 -.186264514923D-08  .205000000000D+03
     .863760000000D+05  .400000000000D+01
10 00  4  9 23 59 44.0  .493335537612D-04  .454747350886D-12  .000000000000D+01
     .170000000000D+03 -.993750000000D+02  .422803325741D-08  .194280654160D+01
    -.489130616188D-05  .409883516841D-02  .867061316967D-05  .515359880066D+04
     .863840000000D+05  .633299350738D-07 -.253040833085D+01  .145286321640D-06
     .974400072383D+00  .219281250000D+03 -.990254880091D-01 -.799211861811D-08
    -.992898501065D-10  .100000000000D+01  .105700000000D+04  .000000000000D+01
     .480000000000D+02  .000000000000D+01 -.186264514923D-08  .170000000000D+03
     .863460000000D+05  .400000000000D+01
26 00  4 10  0  0  0.0  .346053857356D-03  .262616595137D-10  .000000000000D+01
     .203000000000D+03 -.236250000000D+02  .462054960730D-08  .338511381821D+00
    -.128895044327D-05  .119717431953D-01  .913441181183D-05  .515373644257D+04
     .864000000000D+05  .160187482834D-06 -.147717802978D+01  .949949026108D-07
     .962829629467D+00  .200281250000D+03  .626838672632D-01 -.814855370568D-08
     .285726187357D-09  .100000000000D+01  .105700000000D+04  .000000000000D+01
     .480000000000D+02  .000000000000D+01 -.651925802231D-08  .459000000000D+03
     .863460000000D+05  .400000000000D+01
22 00  4 10  0  0  0.0  .358670484275D-03 -.110276232590D-10  .000000000000D+01
     .111000000000D+03  .133750000000D+02  .506949687918D-08  .149993500641D+01
     .840052962303D-06  .130276182899D-01  .984407961369D-05  .515384736824D+04
     .864000000000D+05 -.175088644028D-06  .559088876593D+00  .521540641785D-07
     .934297400437D+00  .179093750000D+03  .562029747161D+00 -.833784730481D-08
    -.520378818724D-09  .100000000000D+01  .105700000000D+04  .000000000000D+01
     .480000000000D+02  .000000000000D+01 -.372529029846D-08  .367000000000D+03
     .863460000000D+05  .400000000000D+01
23 00  4 10  0  0  0.0  .892858952284D-05  .454747350886D-12  .000000000000D+01
     .226000000000D+03 -.111000000000D+03  .402838208400D-08  .204480412470D+01
    -.595673918724D-05  .146519975970D-01  .812299549580D-05  .515359183311D+04
     .864000000000D+05  .428408384323D-07 -.248366336275D+01 -.322237610817D-06
     .976965435286D+00  .231937500000D+03 -.189569348868D+01 -.777353808478D-08
    -.564309220030D-10  .100000000000D+01  .105700000000D+04  .000000000000D+01
     .480000000000D+02  .000000000000D+01 -.279396772385D-08  .738000000000D+03
     .863460000000D+05  .400000000000D+01
24 00  4 10  0  0  0.0  .693322159350D-03  .112549969344D-10  .000000000000D+01
     .219000000000D+03 -.207187500000D+02  .421874715632D-08 -.164834618179D+01
    -.802800059319D-06  .885061838199D-02  .303238630295D-05  .515374885559D+04
     .864000000000D+05  .651925802231D-07  .274103252161D+01  .132247805595D-06
     .986908675885D+00  .334156250000D+03 -.170124785525D+01 -.811462372093D-08
     .500020827874D-11  .100000000000D+01  .105700000000D+04  .000000000000D+01
     .480000000000D+02  .000000000000D+01 -.931322574616D-09  .219000000000D+03
     .863460000000D+05  .400000000000D+01
13 00  4 10  0  0  0.0 -.674818176776D-03 -.227373675443D-10  .000000000000D+01
     .600000000000D+01 -.130625000000D+02  .451661670664D-08  .216653066637D+01
    -.642612576485D-06  .262047967408D-02  .928342342377D-05  .515380464745D+04
     .864000000000D+05 -.745058059692D-08 -.148286537397D+01  .465661287308D-07
     .963972361592D+00  .199656250000D+03 -.559161763560D+00 -.795568852922D-08
     .300012496725D-09  .100000000000D+01  .105700000000D+04  .000000000000D+01
     .480000000000D+02  .000000000000D+01 -.121071934700D-07  .262000000000D+03
     .863460000000D+05  .400000000000D+01
30 00  4  9 23 59 44.0 -.165509991348D-04 -.147792889038D-11  .000000000000D+01
     .830000000000D+02  .279062500000D+02  .470483883257D-08  .213944673940D+01
     .141561031342D-05  .554110133089D-02  .978074967861D-05  .515368985939D+04
     .863840000000D+05  .141561031342D-06  .595369255199D+00 -.745058059692D-07
     .944846866973D+00  .180531250000D+03  .147811569005D+01 -.798997567170D-08
    -.344657213499D-09  .100000000000D+01  .105700000000D+04  .000000000000D+01
     .480000000000D+02  .000000000000D+01 -.791624188423D-08  .830000000000D+02
     .863460000000D+05  .400000000000D+01
 6 00  4  9 23 59 44.0  .163167715073D-05  .000000000000D+01  .000000000000D+01
     .163000000000D+03  .115156250000D+03  .469662420468D-08 -.128848168781D+01
     .595301389694D-05  .665864639450D-02  .708550214768D-05  .515376416969D+04
     .863840000000D+05  .173225998878D-06  .166879520765D+01  .372529029846D-08
     .949008522197D+00  .231875000000D+03 -.241617757223D+01 -.825355807954D-08
     .179293182566D-09  .100000000000D+01  .105700000000D+04  .000000000000D+01
     .480000000000D+02  .000000000000D+01 -.512227416039D-08  .163000000000D+03
     .863460000000D+05  .400000000000D+01
